[{"OBJECT_NAME":"OBJECT A","OBJECT_ID":"2025-013A","EPOCH":"2026-03-09T23:29:31.895232","MEAN_MOTION":15.29260221,"ECCENTRICITY":0.0010321,"INCLINATION":97.6364,"RA_OF_ASC_NODE":244.5149,"ARG_OF_PERICENTER":282.3775,"MEAN_ANOMALY":77.6309,"EPHEMERIS_TYPE":0,"CLASSIFICATION_TYPE":"U","NORAD_CAT_ID":62729,"ELEMENT_SET_NO":999,"REV_AT_EPOCH":6276,"BSTAR":0.0013206527,"MEAN_MOTION_DOT":0.00037616,"MEAN_MOTION_DDOT":0},{"OBJECT_NAME":"STARLINK-35821","OBJECT_ID":"2025-254AA","EPOCH":"2026-03-09T17:22:21.026208","MEAN_MOTION":15.30210868,"ECCENTRICITY":0.00010619,"INCLINATION":53.1584,"RA_OF_ASC_NODE":229.9257,"ARG_OF_PERICENTER":51.4783,"MEAN_ANOMALY":308.6312,"EPHEMERIS_TYPE":0,"CLASSIFICATION_TYPE":"U","NORAD_CAT_ID":66372,"ELEMENT_SET_NO":999,"REV_AT_EPOCH":1901,"BSTAR":0.0011301277,"MEAN_MOTION_DOT":0.00033273,"MEAN_MOTION_DDOT":0}]
